IRIDIUM 57              
1 25273U 98019B   24229.52089471  .00001208  00000+0  41476-3 0  9996
2 25273  86.3921 272.8457 0002261  90.9614 269.1842 14.35336261381070
IRIDIUM 63              
1 25286U 98021B   24229.86985461  .00001689  00000+0  57610-3 0  9994
2 25286  86.3994 209.6088 0002406  94.5153 265.6318 14.35900469380166
IRIDIUM 69              
1 25319U 98026A   24229.89845920  .00001772  00000+0  55512-3 0  9996
2 25319  86.3967 223.7934 0001481  20.0457 340.0800 14.40155372379256
IRIDIUM 71              
1 25320U 98026B   24229.88554388  .00002015  00000+0  62806-3 0  9997
2 25320  86.3974 218.5492 0003476  52.1749 307.9764 14.40462614380021
IRIDIUM 73              
1 25344U 98032C   24229.79612637  .00002679  00000+0  67645-3 0  9994
2 25344  86.4478 175.9595 0002063  78.0732 282.0704 14.50744391386419
IRIDIUM 82              
1 25467U 98051A   24229.12492907  .00025300  00000+0  11981-2 0  9991
2 25467  86.3710 257.2781 0120985   1.2171 358.9337 15.12844616377542
